CCSDS_OMM_VERS = 2.0
CREATION_DATE  = 
ORIGINATOR     = 

OBJECT_NAME    = STARLINK-35333
OBJECT_ID      = 2025-243F
CENTER_NAME    = EARTH
REF_FRAME      = TEME
TIME_SYSTEM    = UTC
MEAN_ELEMENT_THEORY = SGP/SGP4

EPOCH          = 2025-11-23T20:00:01.999008
MEAN_MOTION    = 15.38894179
ECCENTRICITY   = .0001372
INCLINATION    = 53.1590
RA_OF_ASC_NODE = 17.2943
ARG_OF_PERICENTER = 90.0663
MEAN_ANOMALY   = 202.2273

EPHEMERIS_TYPE = 0
CLASSIFICATION_TYPE = U
NORAD_CAT_ID   = 66182
ELEMENT_SET_NO = 999
REV_AT_EPOCH   = 549
BSTAR          = -.58066E-1
MEAN_MOTION_DOT = -.2017211E-1
MEAN_MOTION_DDOT = 0

CCSDS_OMM_VERS = 2.0
CREATION_DATE  = 
ORIGINATOR     = 

OBJECT_NAME    = STARLINK-35310
OBJECT_ID      = 2025-243G
CENTER_NAME    = EARTH
REF_FRAME      = TEME
TIME_SYSTEM    = UTC
MEAN_ELEMENT_THEORY = SGP/SGP4

EPOCH          = 2025-11-23T20:00:01.999008
MEAN_MOTION    = 15.39639726
ECCENTRICITY   = .0000063
INCLINATION    = 53.1596
RA_OF_ASC_NODE = 17.2813
ARG_OF_PERICENTER = 197.3579
MEAN_ANOMALY   = 102.5068

EPHEMERIS_TYPE = 0
CLASSIFICATION_TYPE = U
NORAD_CAT_ID   = 66183
ELEMENT_SET_NO = 999
REV_AT_EPOCH   = 560
BSTAR          = .28936E-4
MEAN_MOTION_DOT = .76E-5
MEAN_MOTION_DDOT = 0

CCSDS_OMM_VERS = 2.0
CREATION_DATE  = 
ORIGINATOR     = 

OBJECT_NAME    = STARLINK-35317
OBJECT_ID      = 2025-243H
CENTER_NAME    = EARTH
REF_FRAME      = TEME
TIME_SYSTEM    = UTC
MEAN_ELEMENT_THEORY = SGP/SGP4

EPOCH          = 2025-11-23T20:00:01.999008
MEAN_MOTION    = 15.46004168
ECCENTRICITY   = .00012
INCLINATION    = 53.1593
RA_OF_ASC_NODE = 17.2624
ARG_OF_PERICENTER = 80.0506
MEAN_ANOMALY   = 229.9893

EPHEMERIS_TYPE = 0
CLASSIFICATION_TYPE = U
NORAD_CAT_ID   = 66184
ELEMENT_SET_NO = 999
REV_AT_EPOCH   = 554
BSTAR          = -.50197E-1
MEAN_MOTION_DOT = -.2194495E-1
MEAN_MOTION_DDOT = 0

CCSDS_OMM_VERS = 2.0
CREATION_DATE  = 
ORIGINATOR     = 

OBJECT_NAME    = STARLINK-35377
OBJECT_ID      = 2025-243J
CENTER_NAME    = EARTH
REF_FRAME      = TEME
TIME_SYSTEM    = UTC
MEAN_ELEMENT_THEORY = SGP/SGP4

EPOCH          = 2025-11-23T20:00:01.999008
MEAN_MOTION    = 15.42418459
ECCENTRICITY   = .0001332
INCLINATION    = 53.1582
RA_OF_ASC_NODE = 17.2989
ARG_OF_PERICENTER = 91.2992
MEAN_ANOMALY   = 200.3187

EPHEMERIS_TYPE = 0
CLASSIFICATION_TYPE = U
NORAD_CAT_ID   = 66185
ELEMENT_SET_NO = 999
REV_AT_EPOCH   = 560
BSTAR          = -.52616E-1
MEAN_MOTION_DOT = -.2052102E-1
MEAN_MOTION_DDOT = 0

CCSDS_OMM_VERS = 2.0
CREATION_DATE  = 
ORIGINATOR     = 

OBJECT_NAME    = STARLINK-35365
OBJECT_ID      = 2025-243K
CENTER_NAME    = EARTH
REF_FRAME      = TEME
TIME_SYSTEM    = UTC
MEAN_ELEMENT_THEORY = SGP/SGP4

EPOCH          = 2025-11-23T20:00:01.999008
MEAN_MOTION    = 15.44217797
ECCENTRICITY   = .0001124
INCLINATION    = 53.1591
RA_OF_ASC_NODE = 17.2904
ARG_OF_PERICENTER = 86.5229
MEAN_ANOMALY   = 209.7940

EPHEMERIS_TYPE = 0
CLASSIFICATION_TYPE = U
NORAD_CAT_ID   = 66186
ELEMENT_SET_NO = 999
REV_AT_EPOCH   = 554
BSTAR          = -.50924E-1
MEAN_MOTION_DOT = -.2104742E-1
MEAN_MOTION_DDOT = 0

CCSDS_OMM_VERS = 2.0
CREATION_DATE  = 
ORIGINATOR     = 

OBJECT_NAME    = STARLINK-35350
OBJECT_ID      = 2025-243L
CENTER_NAME    = EARTH
REF_FRAME      = TEME
TIME_SYSTEM    = UTC
MEAN_ELEMENT_THEORY = SGP/SGP4

EPOCH          = 2025-11-23T20:00:01.999008
MEAN_MOTION    = 15.41289688
ECCENTRICITY   = .0001383
INCLINATION    = 53.1593
RA_OF_ASC_NODE = 17.3168
ARG_OF_PERICENTER = 91.5580
MEAN_ANOMALY   = 191.4317

EPHEMERIS_TYPE = 0
CLASSIFICATION_TYPE = U
NORAD_CAT_ID   = 66187
ELEMENT_SET_NO = 999
REV_AT_EPOCH   = 554
BSTAR          = -.54554E-1
MEAN_MOTION_DOT = -.2048682E-1
MEAN_MOTION_DDOT = 0

CCSDS_OMM_VERS = 2.0
CREATION_DATE  = 
ORIGINATOR     = 

OBJECT_NAME    = STARLINK-35041
OBJECT_ID      = 2025-243M
CENTER_NAME    = EARTH
REF_FRAME      = TEME
TIME_SYSTEM    = UTC
MEAN_ELEMENT_THEORY = SGP/SGP4

EPOCH          = 2025-11-23T15:32:53.352672
MEAN_MOTION    = 15.48335127
ECCENTRICITY   = .0002267
INCLINATION    = 53.1591
RA_OF_ASC_NODE = 18.1380
ARG_OF_PERICENTER = 190.4374
MEAN_ANOMALY   = 169.6588

EPHEMERIS_TYPE = 0
CLASSIFICATION_TYPE = U
NORAD_CAT_ID   = 66188
ELEMENT_SET_NO = 999
REV_AT_EPOCH   = 441
BSTAR          = -.59465E-2
MEAN_MOTION_DOT = -.307819E-2
MEAN_MOTION_DDOT = 0

CCSDS_OMM_VERS = 2.0
CREATION_DATE  = 
ORIGINATOR     = 

OBJECT_NAME    = STARLINK-34694
OBJECT_ID      = 2025-243N
CENTER_NAME    = EARTH
REF_FRAME      = TEME
TIME_SYSTEM    = UTC
MEAN_ELEMENT_THEORY = SGP/SGP4

EPOCH          = 2025-11-23T09:20:04.821216
MEAN_MOTION    = 15.49331109
ECCENTRICITY   = .0000917
INCLINATION    = 53.1594
RA_OF_ASC_NODE = 19.3670
ARG_OF_PERICENTER = 55.2615
MEAN_ANOMALY   = 304.8481

EPHEMERIS_TYPE = 0
CLASSIFICATION_TYPE = U
NORAD_CAT_ID   = 66189
ELEMENT_SET_NO = 999
REV_AT_EPOCH   = 437
BSTAR          = .12201E-2
MEAN_MOTION_DOT = .68054E-3
MEAN_MOTION_DDOT = 0

CCSDS_OMM_VERS = 2.0
CREATION_DATE  = 
ORIGINATOR     = 

OBJECT_NAME    = STARLINK-34863
OBJECT_ID      = 2025-243P
CENTER_NAME    = EARTH
REF_FRAME      = TEME
TIME_SYSTEM    = UTC
MEAN_ELEMENT_THEORY = SGP/SGP4

EPOCH          = 2025-11-23T20:00:01.999008
MEAN_MOTION    = 15.44979770
ECCENTRICITY   = .0001196
INCLINATION    = 53.1582
RA_OF_ASC_NODE = 17.2715
ARG_OF_PERICENTER = 97.0941
MEAN_ANOMALY   = 207.8817

EPHEMERIS_TYPE = 0
CLASSIFICATION_TYPE = U
NORAD_CAT_ID   = 66190
ELEMENT_SET_NO = 999
REV_AT_EPOCH   = 554
BSTAR          = -.49315E-1
MEAN_MOTION_DOT = -.2093791E-1
MEAN_MOTION_DDOT = 0

CCSDS_OMM_VERS = 2.0
CREATION_DATE  = 
ORIGINATOR     = 

OBJECT_NAME    = STARLINK-35061
OBJECT_ID      = 2025-243Q
CENTER_NAME    = EARTH
REF_FRAME      = TEME
TIME_SYSTEM    = UTC
MEAN_ELEMENT_THEORY = SGP/SGP4

EPOCH          = 2025-11-23T20:00:01.999008
MEAN_MOTION    = 15.39119562
ECCENTRICITY   = .0001284
INCLINATION    = 53.1594
RA_OF_ASC_NODE = 17.2996
ARG_OF_PERICENTER = 91.7599
MEAN_ANOMALY   = 198.4901

EPHEMERIS_TYPE = 0
CLASSIFICATION_TYPE = U
NORAD_CAT_ID   = 66191
ELEMENT_SET_NO = 999
REV_AT_EPOCH   = 559
BSTAR          = -.58066E-1
MEAN_MOTION_DOT = -.2030579E-1
MEAN_MOTION_DDOT = 0

CCSDS_OMM_VERS = 2.0
CREATION_DATE  = 
ORIGINATOR     = 

OBJECT_NAME    = STARLINK-34937
OBJECT_ID      = 2025-243R
CENTER_NAME    = EARTH
REF_FRAME      = TEME
TIME_SYSTEM    = UTC
MEAN_ELEMENT_THEORY = SGP/SGP4

EPOCH          = 2025-11-23T20:00:01.999008
MEAN_MOTION    = 15.38039909
ECCENTRICITY   = .0001387
INCLINATION    = 53.1586
RA_OF_ASC_NODE = 17.3202
ARG_OF_PERICENTER = 97.7198
MEAN_ANOMALY   = 181.4017

EPHEMERIS_TYPE = 0
CLASSIFICATION_TYPE = U
NORAD_CAT_ID   = 66192
ELEMENT_SET_NO = 999
REV_AT_EPOCH   = 533
BSTAR          = -.60029E-1
MEAN_MOTION_DOT = -.2026406E-1
MEAN_MOTION_DDOT = 0

CCSDS_OMM_VERS = 2.0
CREATION_DATE  = 
ORIGINATOR     = 

OBJECT_NAME    = STARLINK-35197
OBJECT_ID      = 2025-243S
CENTER_NAME    = EARTH
REF_FRAME      = TEME
TIME_SYSTEM    = UTC
MEAN_ELEMENT_THEORY = SGP/SGP4

EPOCH          = 2025-11-23T09:18:06.086016
MEAN_MOTION    = 15.49329049
ECCENTRICITY   = .0001044
INCLINATION    = 53.1593
RA_OF_ASC_NODE = 19.3555
ARG_OF_PERICENTER = 67.3530
MEAN_ANOMALY   = 292.7589

EPHEMERIS_TYPE = 0
CLASSIFICATION_TYPE = U
NORAD_CAT_ID   = 66193
ELEMENT_SET_NO = 999
REV_AT_EPOCH   = 437
BSTAR          = .90596E-3
MEAN_MOTION_DOT = .50298E-3
MEAN_MOTION_DDOT = 0

