STARLINK-35333          
1 66182U 25243F   25327.83335647 -.02017211  00000+0 -58066-1 0  9998
2 66182  53.1590  17.2943 0001372  90.0663 202.2273 15.38894179  5492
STARLINK-35310          
1 66183U 25243G   25327.83335647  .00000760  00000+0  28936-4 0  9992
2 66183  53.1596  17.2813 0000063 197.3579 102.5068 15.39639726  5601
STARLINK-35317          
1 66184U 25243H   25327.83335647 -.02194495  00000+0 -50197-1 0  9997
2 66184  53.1593  17.2624 0001200  80.0506 229.9893 15.46004168  5548
STARLINK-35377          
1 66185U 25243J   25327.83335647 -.02052102  00000+0 -52616-1 0  9994
2 66185  53.1582  17.2989 0001332  91.2992 200.3187 15.42418459  5604
STARLINK-35365          
1 66186U 25243K   25327.83335647 -.02104742  00000+0 -50924-1 0  9993
2 66186  53.1591  17.2904 0001124  86.5229 209.7940 15.44217797  5548
STARLINK-35350          
1 66187U 25243L   25327.83335647 -.02048682  00000+0 -54554-1 0  9997
2 66187  53.1593  17.3168 0001383  91.5580 191.4317 15.41289688  5547
STARLINK-35041          
1 66188U 25243M   25327.64783973 -.00307819  00000+0 -59465-2 0  9991
2 66188  53.1591  18.1380 0002267 190.4374 169.6588 15.48335127  4412
STARLINK-34694          
1 66189U 25243N   25327.38894469  .00068054  00000+0  12201-2 0  9996
2 66189  53.1594  19.3670 0000917  55.2615 304.8481 15.49331109  4374
STARLINK-34863          
1 66190U 25243P   25327.83335647 -.02093791  00000+0 -49315-1 0  9991
2 66190  53.1582  17.2715 0001196  97.0941 207.8817 15.44979770  5548
STARLINK-35061          
1 66191U 25243Q   25327.83335647 -.02030579  00000+0 -58066-1 0  9990
2 66191  53.1594  17.2996 0001284  91.7599 198.4901 15.39119562  5594
STARLINK-34937          
1 66192U 25243R   25327.83335647 -.02026406  00000+0 -60029-1 0  9997
2 66192  53.1586  17.3202 0001387  97.7198 181.4017 15.38039909  5339
STARLINK-35197          
1 66193U 25243S   25327.38757044  .00050298  00000+0  90596-3 0  9993
2 66193  53.1593  19.3555 0001044  67.3530 292.7589 15.49329049  4376
